{
  "norad_id": 64208,
  "name": "STARLINK-34327",
  "history": [
    {
      "epoch": "2026-03-28T22:04:05.384064Z",
      "apogee_km": 476.00027520295407,
      "perigee_km": 474.45963831107565,
      "latitude_deg": 3.6641574696061997e-05,
      "longitude_deg": 152.66225054740292,
      "height_km": 475.7579206223428,
      "semi_major_axis_km": 6853.366956757015,
      "eccentricity": 0.0001124,
      "inclination_deg": 53.1593,
      "raan_deg": 310.0177,
      "arg_perigee_deg": 61.258,
      "mean_anomaly_deg": 298.8534,
      "mean_motion_rev_day": 15.30195014
    },
    {
      "epoch": "2026-03-30T14:49:28.641504Z",
      "apogee_km": 475.9234351705727,
      "perigee_km": 474.4542191797427,
      "latitude_deg": 6.581043964890415e-05,
      "longitude_deg": -108.24234087950721,
      "height_km": 476.1431990515906,
      "semi_major_axis_km": 6853.325827175157,
      "eccentricity": 0.00010719,
      "inclination_deg": 53.158,
      "raan_deg": 302.1338,
      "arg_perigee_deg": 94.3912,
      "mean_anomaly_deg": 265.7212,
      "mean_motion_rev_day": 15.30208789
    },
    {
      "epoch": "2026-03-30T21:05:41.400096Z",
      "apogee_km": 476.0305976155187,
      "perigee_km": 474.41622003761586,
      "latitude_deg": 1.7835813475635192e-05,
      "longitude_deg": 156.23195447247704,
      "height_km": 476.21494149020134,
      "semi_major_axis_km": 6853.3604088265665,
      "eccentricity": 0.00011778,
      "inclination_deg": 53.1583,
      "raan_deg": 300.9188,
      "arg_perigee_deg": 96.6524,
      "mean_anomaly_deg": 263.4611,
      "mean_motion_rev_day": 15.30197207
    },
    {
      "epoch": "2026-03-31T06:30:00.557856Z",
      "apogee_km": 475.9405654994471,
      "perigee_km": 474.42598171897953,
      "latitude_deg": -3.568743200712345e-06,
      "longitude_deg": 12.945152211323405,
      "height_km": 476.13115300118784,
      "semi_major_axis_km": 6853.3202736092135,
      "eccentricity": 0.0001105,
      "inclination_deg": 53.1568,
      "raan_deg": 299.0981,
      "arg_perigee_deg": 93.7794,
      "mean_anomaly_deg": 266.3333,
      "mean_motion_rev_day": 15.30210649
    },
    {
      "epoch": "2026-04-01T20:07:17.366016Z",
      "apogee_km": 475.6648255939017,
      "perigee_km": 474.62997964910664,
      "latitude_deg": -7.227585742942115e-06,
      "longitude_deg": 159.79676419065106,
      "height_km": 476.07521351454,
      "semi_major_axis_km": 6853.284402621504,
      "eccentricity": 7.55e-05,
      "inclination_deg": 53.158,
      "raan_deg": 291.8148,
      "arg_perigee_deg": 93.2409,
      "mean_anomaly_deg": 266.8678,
      "mean_motion_rev_day": 15.30222663
    },
    {
      "epoch": "2026-04-02T19:38:04.704864Z",
      "apogee_km": 475.6746507913258,
      "perigee_km": 474.6891435339139,
      "latitude_deg": 1.8991848094565856e-05,
      "longitude_deg": 161.58338855184545,
      "height_km": 476.0362281134307,
      "semi_major_axis_km": 6853.31889716262,
      "eccentricity": 7.19e-05,
      "inclination_deg": 53.1596,
      "raan_deg": 287.2643,
      "arg_perigee_deg": 84.8254,
      "mean_anomaly_deg": 275.2829,
      "mean_motion_rev_day": 15.3021111
    },
    {
      "epoch": "2026-04-02T19:38:04.705728Z",
      "apogee_km": 475.674924924082,
      "perigee_km": 474.6888694011577,
      "latitude_deg": 1.531640527941132e-05,
      "longitude_deg": 161.5833822035926,
      "height_km": 476.03620338943836,
      "semi_major_axis_km": 6853.31889716262,
      "eccentricity": 7.194e-05,
      "inclination_deg": 53.1596,
      "raan_deg": 287.2643,
      "arg_perigee_deg": 84.8254,
      "mean_anomaly_deg": 275.2829,
      "mean_motion_rev_day": 15.3021111
    },
    {
      "epoch": "2026-04-03T19:08:53.041632Z",
      "apogee_km": 475.6875626333331,
      "perigee_km": 474.5554043318607,
      "latitude_deg": 6.038244379143197e-06,
      "longitude_deg": 163.36521363915185,
      "height_km": 475.730101834784,
      "semi_major_axis_km": 6853.258483482597,
      "eccentricity": 8.26e-05,
      "inclination_deg": 53.1594,
      "raan_deg": 282.7132,
      "arg_perigee_deg": 59.1647,
      "mean_anomaly_deg": 300.9435,
      "mean_motion_rev_day": 15.30231344
    },
    {
      "epoch": "2026-04-04T18:39:39.316032Z",
      "apogee_km": 475.9491261348885,
      "perigee_km": 474.48113810818813,
      "latitude_deg": 2.519048410780506e-05,
      "longitude_deg": 165.1574785529015,
      "height_km": 476.42811798249824,
      "semi_major_axis_km": 6853.3521321215385,
      "eccentricity": 0.0001071,
      "inclination_deg": 53.1598,
      "raan_deg": 278.1639,
      "arg_perigee_deg": 115.3739,
      "mean_anomaly_deg": 244.7373,
      "mean_motion_rev_day": 15.30199979
    },
    {
      "epoch": "2026-04-05T11:54:16.164288Z",
      "apogee_km": 475.94164892030403,
      "perigee_km": 474.61222368494055,
      "latitude_deg": 3.2425013184609365e-05,
      "longitude_deg": -97.5440197710333,
      "height_km": 476.0430385885534,
      "semi_major_axis_km": 6853.413936302622,
      "eccentricity": 9.699e-05,
      "inclination_deg": 53.1605,
      "raan_deg": 274.8241,
      "arg_perigee_deg": 78.5066,
      "mean_anomaly_deg": 281.6044,
      "mean_motion_rev_day": 15.3017928
    },
    {
      "epoch": "2026-04-05T18:10:29.216640Z",
      "apogee_km": 476.0400006667378,
      "perigee_km": 474.4609801889428,
      "latitude_deg": -1.4496871632411538e-05,
      "longitude_deg": 166.9318482477173,
      "height_km": 475.7782666299299,
      "semi_major_axis_km": 6853.38749042784,
      "eccentricity": 0.0001152,
      "inclination_deg": 53.1608,
      "raan_deg": 273.6119,
      "arg_perigee_deg": 61.9935,
      "mean_anomaly_deg": 298.1182,
      "mean_motion_rev_day": 15.30188137
    },
    {
      "epoch": "2026-04-07T10:55:52.013568Z",
      "apogee_km": 476.1996602616455,
      "perigee_km": 474.1346226577398,
      "latitude_deg": 6.1041430564477705e-06,
      "longitude_deg": -93.97463095440226,
      "height_km": 475.6531122060067,
      "semi_major_axis_km": 6853.304141459692,
      "eccentricity": 0.00015066,
      "inclination_deg": 53.1598,
      "raan_deg": 265.7242,
      "arg_perigee_deg": 66.4863,
      "mean_anomaly_deg": 293.6296,
      "mean_motion_rev_day": 15.30216052
    },
    {
      "epoch": "2026-04-07T17:12:04.905216Z",
      "apogee_km": 476.2200388317142,
      "perigee_km": 474.100999238829,
      "latitude_deg": -3.085833383844866e-05,
      "longitude_deg": 170.50121561954288,
      "height_km": 475.5651407782042,
      "semi_major_axis_km": 6853.297519035272,
      "eccentricity": 0.0001546,
      "inclination_deg": 53.1607,
      "raan_deg": 264.5113,
      "arg_perigee_deg": 62.2447,
      "mean_anomaly_deg": 297.871,
      "mean_motion_rev_day": 15.3021827
    },
    {
      "epoch": "2026-04-08T04:10:26.586048Z",
      "apogee_km": 476.0061053136542,
      "perigee_km": 474.1899980249609,
      "latitude_deg": -5.93644054427306e-07,
      "longitude_deg": 3.335167670129228,
      "height_km": 475.77615148846155,
      "semi_major_axis_km": 6853.235051669307,
      "eccentricity": 0.0001325,
      "inclination_deg": 53.1619,
      "raan_deg": 262.3862,
      "arg_perigee_deg": 75.9675,
      "mean_anomaly_deg": 284.1473,
      "mean_motion_rev_day": 15.30239192
    },
    {
      "epoch": "2026-04-08T19:50:57.650496Z",
      "apogee_km": 475.5686981052586,
      "perigee_km": 474.88295062105317,
      "latitude_deg": 8.68218913738003e-06,
      "longitude_deg": 124.52937584556659,
      "height_km": 476.21867165622893,
      "semi_major_axis_km": 6853.362824363156,
      "eccentricity": 5.003e-05,
      "inclination_deg": 53.1602,
      "raan_deg": 259.3536,
      "arg_perigee_deg": 105.8623,
      "mean_anomaly_deg": 254.2433,
      "mean_motion_rev_day": 15.30196398
    },
    {
      "epoch": "2026-04-10T03:12:03.465216Z",
      "apogee_km": 476.03232172612934,
      "perigee_km": 474.25896630916304,
      "latitude_deg": 3.52889883548622e-05,
      "longitude_deg": 6.9003988216003505,
      "height_km": 475.921569523778,
      "semi_major_axis_km": 6853.282644017646,
      "eccentricity": 0.00012938,
      "inclination_deg": 53.1617,
      "raan_deg": 253.2864,
      "arg_perigee_deg": 82.0704,
      "mean_anomaly_deg": 278.0444,
      "mean_motion_rev_day": 15.30223252
    },
    {
      "epoch": "2026-04-11T18:23:23.436672Z",
      "apogee_km": 475.9335084495269,
      "perigee_km": 474.4819700337548,
      "latitude_deg": -5.58231995857005e-05,
      "longitude_deg": 129.8749831250144,
      "height_km": 476.05184292010927,
      "semi_major_axis_km": 6853.34473924164,
      "eccentricity": 0.0001059,
      "inclination_deg": 53.1577,
      "raan_deg": 245.7037,
      "arg_perigee_deg": 85.7311,
      "mean_anomaly_deg": 274.381,
      "mean_motion_rev_day": 15.30202455
    },
    {
      "epoch": "2026-04-13T01:44:27.197664Z",
      "apogee_km": 476.01643022591816,
      "perigee_km": 474.41493877060384,
      "latitude_deg": 3.721388591451367e-05,
      "longitude_deg": 12.250239158908864,
      "height_km": 475.6404407540923,
      "semi_major_axis_km": 6853.352684498261,
      "eccentricity": 0.00011684,
      "inclination_deg": 53.1591,
      "raan_deg": 239.6321,
      "arg_perigee_deg": 53.7341,
      "mean_anomaly_deg": 306.3768,
      "mean_motion_rev_day": 15.30199794
    },
    {
      "epoch": "2026-04-14T09:05:30.868800Z",
      "apogee_km": 475.91842373638974,
      "perigee_km": 474.47908616113637,
      "latitude_deg": -6.81851273683052e-06,
      "longitude_deg": -105.36882956095971,
      "height_km": 476.00824768740284,
      "semi_major_axis_km": 6853.335754948763,
      "eccentricity": 0.00010501,
      "inclination_deg": 53.1576,
      "raan_deg": 233.5659,
      "arg_perigee_deg": 82.9252,
      "mean_anomaly_deg": 277.1868,
      "mean_motion_rev_day": 15.30205464
    },
    {
      "epoch": "2026-04-15T11:44:25.075104Z",
      "apogee_km": 475.9244540636164,
      "perigee_km": 474.5751592691204,
      "latitude_deg": 1.4196565570127614e-05,
      "longitude_deg": -151.34698210225105,
      "height_km": 476.0329449030049,
      "semi_major_axis_km": 6853.386806666368,
      "eccentricity": 9.844e-05,
      "inclination_deg": 53.1595,
      "raan_deg": 228.408,
      "arg_perigee_deg": 80.161,
      "mean_anomaly_deg": 279.9502,
      "mean_motion_rev_day": 15.30188366
    }
  ]
}